EZIE-C                  
1 98648U 14900A   25074.37657697  .00000000  00000-0 -20888-2 0    09
2 98648  97.7501 329.5440 0004653 291.6420   8.7136 14.90798120    01
